QIANFAN-60              
1 62790U 25016F   25244.22074312  .00000120  00000+0  16822-3 0  9990
2 62790  88.9779 113.6915 0013559 284.1780  75.7864 13.50963228 33386
QIANFAN-61              
1 62791U 25016G   25244.23320407  .00000115  00000+0  16016-3 0  9990
2 62791  88.9847 113.7785 0013005 282.7199  77.2498 13.50968859 33401
QIANFAN-62              
1 62792U 25016H   25244.23724648  .00000109  00000+0  15043-3 0  9998
2 62792  88.9793 113.7019 0014388 282.8329  77.1214 13.50962856 33397
QIANFAN-63              
1 62793U 25016J   25244.24966629  .00000107  00000+0  14734-3 0  9991
2 62793  88.9800 113.6423 0014264 287.8939  72.0656 13.50959864 33434
QIANFAN-64              
1 62794U 25016K   25244.24135160  .00000109  00000+0  15012-3 0  9992
2 62794  88.9787 113.6370 0012007 281.3597  78.6205 13.50962478 33428
QIANFAN-65              
1 62795U 25016L   25244.22494114  .00000128  00000+0  17986-3 0  9991
2 62795  88.9783 113.6654 0012212 283.4704  76.5086 13.50966425 33409
QIANFAN-66              
1 62796U 25016M   25244.17963873  .00000120  00000+0  16707-3 0  9991
2 62796  88.9802 113.6201 0013266 278.3211  81.6436 13.50961575 33447
QIANFAN-67              
1 62797U 25016N   25244.18369428  .00000122  00000+0  17026-3 0  9996
2 62797  88.9793 113.6552 0013347 286.0665  73.9016 13.50970226 33413
QIANFAN-68              
1 62798U 25016P   25244.18780065  .00000125  00000+0  17571-3 0  9999
2 62798  88.9796 113.6993 0013940 283.9544  76.0057 13.50967724 33392
QIANFAN-69              
1 62799U 25016Q   25244.19195276  .00000118  00000+0  16510-3 0  9999
2 62799  88.9775 113.5875 0014132 285.0284  74.9303 13.50963207 33434
QIANFAN-70              
1 62800U 25016R   25244.20841299  .00000110  00000+0  15275-3 0  9996
2 62800  88.9796 113.7024 0013587 274.2166  85.7432 13.50967148 33396
QIANFAN-71              
1 62801U 25016S   25244.27844320  .00000113  00000+0  15625-3 0  9994
2 62801  88.9790 113.6811 0014115 288.7254  71.2365 13.50966841 33406
QIANFAN-72              
1 62802U 25016T   25244.20019653  .00000117  00000+0  16262-3 0  9993
2 62802  88.9779 113.7076 0017656 295.2388  64.6932 13.50962286 33384
QIANFAN-73              
1 63159U 25046A   25244.24790042  .00000229  00000+0  33552-3 0  9999
2 63159  88.9858 330.6014 0016517  66.0041 294.2837 13.50967946 33579
QIANFAN-74              
1 63160U 25046B   25244.23136615  .00000243  00000+0  35852-3 0  9991
2 63160  88.9858 330.4915 0002114 109.5327 250.6053 13.50973461 33639
QIANFAN-75              
1 63161U 25046C   25244.29320011  .00000235  00000+0  34556-3 0  9994
2 63161  88.9859 330.7173 0017697  68.4863 291.8173 13.50969795 33512
QIANFAN-76              
1 63162U 25046D   25244.28898826  .00000231  00000+0  33950-3 0  9991
2 63162  88.9858 330.6988 0015291  69.9390 290.3405 13.50966271 33523
QIANFAN-77              
1 63163U 25046E   25244.26315510  .00000617  00000+0  43997-3 0  9994
2 63163  88.9854 329.5496 0015919  48.5230 311.7311 13.96030974 34150
QIANFAN-78              
1 63164U 25046F   25244.25613932  .00000232  00000+0  34005-3 0  9996
2 63164  88.9857 330.5673 0016721  71.6079 288.6888 13.50969494 33599
QIANFAN-79              
1 63165U 25046G   25244.28480928  .00000235  00000+0  34558-3 0  9993
2 63165  88.9861 330.6678 0016361  70.1222 290.1691 13.50971691 33542
QIANFAN-80              
1 63166U 25046H   25244.22731899  .00000241  00000+0  35372-3 0  9996
2 63166  88.9858 330.3836 0015463  74.4883 285.7975 13.50971601 33696
QIANFAN-81              
1 63167U 25046J   25244.28079334  .00000237  00000+0  34893-3 0  9994
2 63167  88.9858 330.4464 0016153  63.5256 296.7550 13.50970400 33658
QIANFAN-82              
1 63168U 25046K   25244.23957358  .00000247  00000+0  36306-3 0  9993
2 63168  88.9858 330.4942 0014527  71.5143 288.7586 13.50967358 33633
QIANFAN-83              
1 63169U 25046L   25244.28503527  .00000297  00000+0  36952-3 0  9996
2 63169  88.9858 330.4666 0015576  62.7068 297.5673 13.61943796 33659
QIANFAN-84              
1 63170U 25046M   25244.26828866  .00000239  00000+0  35051-3 0  9997
2 63170  88.9858 330.6243 0017374  67.0562 293.2421 13.50973560 33563
QIANFAN-85              
1 63171U 25046N   25244.26436085  .00000242  00000+0  35595-3 0  9993
2 63171  88.9857 330.4968 0014835  70.3605 289.9146 13.50968335 33637
QIANFAN-86              
1 63172U 25046P   25244.27257971  .00000244  00000+0  35992-3 0  9993
2 63172  88.9860 330.3557 0012833  75.1392 285.1180 13.50968878 33714
QIANFAN-87              
1 63173U 25046Q   25244.24373235  .00000236  00000+0  34671-3 0  9997
2 63173  88.9856 330.4742 0013418  70.3233 289.9364 13.50965412 33647
QIANFAN-88              
1 63174U 25046R   25244.26024001  .00000239  00000+0  35127-3 0  9994
2 63174  88.9858 330.4245 0013983  77.1436 283.1276 13.50972757 33676
QIANFAN-89              
1 63175U 25046S   25244.22307243  .00000242  00000+0  35588-3 0  9998
2 63175  88.9858 330.6173 0018052  67.4444 292.8616 13.50973178 33563
QIANFAN-90              
1 63176U 25046T   25244.25188062  .00000197  00000+0  28613-3 0  9998
2 63176  88.9859 330.5866 0014966  66.8205 293.4521 13.50972331 33585
